INTELSAT 33E (IS-33E)
1 41748U 16053B   26119.14516976  .00000023  00000+0  00000+0 0  9990
2 41748   1.4498  84.8664 0023362 191.5344  58.4244  1.00163807 35754
